#aV2024 12  1  0  0  0.00000000     288 DD+AD WGS84 FIT  NGA
## 2343      0.00000000   300.00000000 60645 0.0000000000000
+   31     2  3  4  5  6  7  8  9 10 11 12 13 14 15 16 17 18
+         19 20 21 22 23 24 25 26 27 28 29 30 31 32  0  0  0
+          0  0  0  0  0  0  0  0  0  0  0  0  0  0  0  0  0
+          0  0  0  0  0  0  0  0  0  0  0  0  0  0  0  0  0
+          0  0  0  0  0  0  0  0  0  0  0  0  0  0  0  0  0
++         2  2  2  2  2  2  2  2  2  2  2  2  2  2  2  2  2
++         2  2  2  2  2  2  2  2  2  2  2  2  2  2  0  0  0
++         0  0  0  0  0  0  0  0  0  0  0  0  0  0  0  0  0
++         0  0  0  0  0  0  0  0  0  0  0  0  0  0  0  0  0
++         0  0  0  0  0  0  0  0  0  0  0  0  0  0  0  0  0
%c cc cc ccc ccc cccc cccc cccc cccc ccccc ccccc ccccc ccccc
%c cc cc ccc ccc cccc cccc cccc cccc ccccc ccccc ccccc ccccc
%f  0.0000000  0.000000000  0.00000000000  0.000000000000000
%f  0.0000000  0.000000000  0.00000000000  0.000000000000000
%i    0    0    0    0      0      0      0      0         0
%i    0    0    0    0      0      0      0      0         0
/*      NGA, ST. LOUIS,MO.                                  
/*   EPHEMERIS COMPUTED FROM 2 DAYS OF DATA                 
/*   EPOCHA v9 SMOOTHER                                     
/*   G2296 IERS2010 SATIGS SATAPC                           
*  2024 12  1  9 25  0.00000000
P  2 -12048.618920  21156.167892  -9688.427195   -302.190203                    
V  2 -11293.554841   7184.552858  28724.620345      0.087352                    
P  3  -1336.214761  15041.101861 -22025.221244    613.934517                    
V  3 -25769.126877  -9553.543754  -4892.372701      0.093488                    
P  4  -1210.792784  25617.522197  -6580.892052    488.621809                    
V  4  -3729.853011  -7987.864571 -30485.290115      0.063131                    
P  5  17281.289664  -7659.857943  18509.085473   -194.665875                    
V  5  22282.113300   8486.036660 -17066.621911     -0.011595                    
P  6  19674.177892   -685.354923 -17814.463507    -10.365457                    
V  6 -17048.008076  14962.308767 -19211.104170     -0.295427                    
P  7   3435.440930  16559.428240  20914.211359    -17.336190                    
V  7 -20351.653715  15401.047715  -9537.125216      0.016907                    
P  8  -7952.093466  19065.438754  16315.886227    427.683630                    
V  8  -6605.894593 -20236.994512  20718.510958      0.095465                    
P  9   6482.975694  25623.544963   2107.666737    467.975987                    
V  9  -2312.887470   3295.557826 -31632.815342      0.167008                    
P 10 -24469.327413 -10655.010176   2002.132266   -216.878383                    
V 10   2680.725028   -775.748309  31971.441618     -0.149482                    
P 11  22997.515104 -11201.653770  -6985.283411   -751.883258                    
V 11  -5599.496536   7423.426651 -30227.829393     -0.009164                    
P 12   6638.786051 -13822.219878 -21974.080693   -555.588741                    
V 12  24756.844162  11303.379415    421.827266     -0.024076                    
P 13  13241.793322 -11222.072617  19799.206614    688.254074                    
V 13   1790.271876  25660.554947  13422.211168      0.015210                    
P 14  22661.233119  13100.360551   5240.139815    551.178069                    
V 14  -7218.398462    376.686211  30311.472778      0.078478                    
P 15   5079.721533 -20522.475422  15467.371942    234.290323                    
V 15   9144.215194  18778.320374  21349.919681      0.045679                    
P 16 -21477.011891   1751.298261  15468.627945   -114.460332                    
V 16 -17382.604042 -10249.319441 -22025.389605      0.096850                    
P 17  12836.978172  16403.133800 -15946.902587    537.263854                    
V 17    218.643424  21188.718120  21610.217890     -0.153472                    
P 18  -5051.885775 -14681.232618  21549.783882   -660.589764                    
V 18  21728.621749 -16513.202160  -6384.608834      0.000584                    
P 19  15060.253340   6403.836891 -21140.335431    569.014540                    
V 19   1147.507849  26397.558775   8450.781174      0.043171                    
P 20  24711.408333  -2259.156518   9353.353081    368.269739                    
V 20  11138.128074   4805.370313 -28653.526454     -0.003283                    
P 21 -16123.447548  19899.815420  -3906.370257     96.104900                    
V 21  -6622.143473   1288.023193  31939.576493     -0.009911                    
P 22  24358.889658   9728.780124  -2519.698367    -83.370785                    
V 22   1994.289413   4409.671484  31734.932055     -0.026522                    
P 23 -16146.528800 -15669.567126  14333.967843    374.516621                    
V 23  17499.186309   4472.083863  24443.722895      0.078199                    
P 24  12474.466213 -21715.943297  -8673.979016   -476.784866                    
V 24   9976.992506  -4966.393887  28703.869423      0.026761                    
P 25  -8624.466385 -17239.672361 -18736.965326    498.553080                    
V 25  22169.437652   6310.151476 -16056.859809     -0.003568                    
P 26 -26039.401252  -3357.506556   5038.669537      7.155759                    
V 26  -5430.961537  -5006.221040 -29945.448431     -0.135774                    
P 27 -13523.086533   8080.917753  21019.231300    -34.493392                    
V 27  -5657.813035 -26898.388787   7030.353307      0.002304                    
P 28 -18734.477360  -1044.864791 -18816.302321   -495.403305                    
V 28  16993.049352 -16805.705952 -15994.646360     -0.112168                    
P 29  -3812.813106 -26133.704308   2062.617712   -559.514429                    
V 29   2411.347745  -2909.438445 -31866.587106      0.030771                    
P 30  14396.998902   8163.048962  20964.364377   -270.634951                    
V 30 -19863.840373  17299.681355   6685.491107      0.079901                    
P 31 -22974.215795   7658.937300 -11565.944118   -220.795771                    
V 31   9761.490315 -10549.558756 -26587.105886      0.006969                    
P 32 -14839.113160 -12849.442244 -17767.049207   -565.853575                    
V 32  -2529.284556 -22832.061627  18193.594520      0.057208                    
EOF
